STARLINK-30949          
1 58415U 23180P   26068.02483864 -.00000558  00000+0 -10753-4 0  9993
2 58415  43.0054  56.3333 0001604 281.2638  78.8034 15.27571086127524
COSMOS 2576             
1 59773U 24092A   26068.82603826  .00015211  00000+0  56283-3 0  9991
2 59773  97.4253 186.0053 0005946 159.7731 200.3745 15.27760963101271
